OBJECT_NAME,OBJECT_ID,EPOCH,MEAN_MOTION,ECCENTRICITY,INCLINATION,RA_OF_ASC_NODE,ARG_OF_PERICENTER,MEAN_ANOMALY,EPHEMERIS_TYPE,CLASSIFICATION_TYPE,NORAD_CAT_ID,ELEMENT_SET_NO,REV_AT_EPOCH,BSTAR,MEAN_MOTION_DOT,MEAN_MOTION_DDOT
STARLINK-3219,2021-115A,2024-11-28T15:41:58.763040,15.08866961,.000169,53.2163,81.4529,108.0864,252.0313,0,U,49724,999,16517,.87057E-4,.1099E-4,0
STARLINK-3218,2021-115B,2024-11-28T14:38:23.814240,15.08837368,.000075,53.2172,81.5416,90.2789,269.8289,0,U,49725,999,16517,.14028E-3,.1945E-4,0
STARLINK-3242,2021-115D,2024-11-28T16:44:13.357248,15.08844536,.0001619,53.2184,91.0381,88.6434,271.4744,0,U,49727,999,16504,.1331E-4,-.76E-6,0
STARLINK-3240,2021-115E,2024-11-28T18:24:54.015840,15.08826338,.0001337,53.2167,90.7258,80.4637,279.6506,0,U,49728,999,16505,-.36376E-3,-.607E-4,0
STARLINK-3251,2021-115F,2024-11-28T16:38:54.345120,15.08844262,.0001447,53.2175,90.9404,87.3876,272.7282,0,U,49729,999,16504,.10658E-3,.1409E-4,0
STARLINK-3249,2021-115G,2024-11-28T15:56:33.999360,15.08844007,.0001507,53.2146,91.3811,84.0410,276.0754,0,U,49730,999,16503,.86345E-4,.1087E-4,0
STARLINK-3246,2021-115J,2024-11-29T01:39:29.076192,15.08819753,.0001407,53.2157,89.5245,90.1753,269.9400,0,U,49732,999,16620,.43696E-3,.6669E-4,0
STARLINK-3252,2021-115K,2024-11-28T17:10:43.902624,15.08834594,.0001486,53.2176,90.9559,85.5940,274.5222,0,U,49733,999,16504,.24108E-3,.355E-4,0
STARLINK-3238,2021-115L,2024-11-28T16:03:10.139040,15.08838279,.0001402,53.2188,81.1920,81.2955,278.8196,0,U,49734,999,16518,.56716E-4,.615E-5,0
STARLINK-3113,2021-115M,2024-11-28T18:35:30.477984,15.08831151,.0001935,53.2187,90.5743,82.4856,277.6356,0,U,49735,999,16505,.16261E-4,-.29E-6,0
STARLINK-3148,2021-115N,2024-11-28T15:57:50.534208,15.08829679,.0001409,53.2151,81.0704,94.1844,265.9309,0,U,49736,999,16518,.28983E-3,.4326E-4,0
STARLINK-3225,2021-115P,2024-11-28T16:08:29.196096,15.08822803,.0001298,53.2159,81.1513,92.8410,267.2731,0,U,49737,999,16518,-.14032E-3,-.2519E-4,0
STARLINK-3143,2021-115Q,2024-11-28T15:11:33.994176,15.08863622,.0001479,53.2172,81.5340,88.2971,271.8191,0,U,49738,999,16517,.27324E-3,.4066E-4,0
STARLINK-3155,2021-115R,2024-11-29T01:23:33.290880,15.08826983,.0001471,53.2157,89.4211,92.6375,267.4786,0,U,49739,999,16620,.5164E-3,.7937E-4,0
STARLINK-3226,2021-115S,2024-11-28T16:31:01.244640,15.08842813,.0001421,53.2181,81.0523,83.3729,276.7425,0,U,49740,999,16518,.10933E-3,.1453E-4,0
STARLINK-3244,2021-115T,2024-11-28T16:25:43.786848,15.08845551,.0001474,53.2191,81.1052,97.7365,262.3794,0,U,49741,999,16518,.50558E-4,.517E-5,0
STARLINK-3202,2021-115U,2024-11-28T15:10:09.396480,15.08847052,.0000951,53.2160,81.3332,72.4792,287.6304,0,U,49742,999,16517,.10595E-3,.1399E-4,0
STARLINK-3239,2021-115V,2024-11-28T16:20:25.519488,15.08837880,.0001115,53.2168,81.0457,82.3483,277.7636,0,U,49743,999,16518,.11706E-3,.1576E-4,0
STARLINK-3231,2021-115W,2024-11-28T19:52:23.179584,15.08841311,.000162,53.2153,80.3486,85.3344,274.7833,0,U,49744,999,16520,.12239E-3,.166E-4,0
STARLINK-3241,2021-115X,2024-11-28T16:36:19.114560,15.08848049,.0001575,53.2169,81.0340,97.5134,262.6037,0,U,49745,999,16518,.8358E-4,.1043E-4,0
STARLINK-3233,2021-115Y,2024-11-28T15:31:22.096992,15.08851335,.000137,53.2177,81.2652,90.6023,269.5126,0,U,49746,999,16517,.70604E-4,.836E-5,0
STARLINK-3247,2021-115Z,2024-11-28T15:15:27.205920,15.08857597,.0001491,53.2166,81.3162,75.8924,284.2234,0,U,49747,999,16517,.18243E-3,.2618E-4,0
STARLINK-3248,2021-115AA,2024-11-28T16:18:58.256352,15.08843113,.0001915,53.2156,80.6935,87.2655,272.8557,0,U,49748,999,16519,-.14273E-3,-.2559E-4,0
STARLINK-3250,2021-115AB,2024-11-28T15:59:16.425312,15.08846151,.000139,53.2168,81.4221,96.7510,263.3641,0,U,49749,999,16517,.79264E-4,.974E-5,0
STARLINK-3236,2021-115AC,2024-11-28T15:53:56.234688,15.08841250,.0001413,53.2158,81.2075,94.1785,265.9369,0,U,49750,999,16518,.1095E-3,.1455E-4,0
STARLINK-3229,2021-115AD,2024-11-28T15:26:01.363776,15.08860939,.0001224,53.2153,81.2069,89.5712,270.5421,0,U,49751,999,16518,.15695E-3,.2212E-4,0
STARLINK-3209,2021-115AE,2024-11-28T16:16:28.068960,15.08842152,.0001324,53.2176,71.1355,98.3447,261.7695,0,U,49752,999,16532,.63158E-4,.717E-5,0
STARLINK-3200,2021-115AF,2024-11-28T17:22:38.268192,15.08846972,.0001399,53.2172,80.9176,110.6161,249.4981,0,U,49753,999,16519,.79593E-4,.979E-5,0
STARLINK-3193,2021-115AG,2024-11-28T06:48:05.605344,15.08846959,.0001645,53.2188,73.0024,84.0399,276.0781,0,U,49754,999,16526,.13922E-3,.1929E-4,0
STARLINK-3210,2021-115AH,2024-11-28T16:04:32.202624,15.08847624,.0001403,53.2163,81.2136,88.1976,271.9177,0,U,49755,999,16518,.14074E-3,.1953E-4,0
