STARLINK-3219           
1 49724U 21115A   24333.65415235  .00001099  00000+0  87057-4 0  9991
2 49724  53.2163  81.4529 0001690 108.0864 252.0313 15.08866961165176
STARLINK-3218           
1 49725U 21115B   24333.60999785  .00001945  00000+0  14028-3 0  9991
2 49725  53.2172  81.5416 0000750  90.2789 269.8289 15.08837368165174
STARLINK-3242           
1 49727U 21115D   24333.69737682 -.00000076  00000+0  13310-4 0  9997
2 49727  53.2184  91.0381 0001619  88.6434 271.4744 15.08844536165045
STARLINK-3240           
1 49728U 21115E   24333.76729185 -.00006070  00000+0 -36376-3 0  9992
2 49728  53.2167  90.7258 0001337  80.4637 279.6506 15.08826338165055
STARLINK-3251           
1 49729U 21115F   24333.69368455  .00001409  00000+0  10658-3 0  9998
2 49729  53.2175  90.9404 0001447  87.3876 272.7282 15.08844262165043
STARLINK-3249           
1 49730U 21115G   24333.66428240  .00001087  00000+0  86345-4 0  9995
2 49730  53.2146  91.3811 0001507  84.0410 276.0754 15.08844007165032
STARLINK-3246           
1 49732U 21115J   24334.06908653  .00006669  00000+0  43696-3 0  9995
2 49732  53.2157  89.5245 0001407  90.1753 269.9400 15.08819753166202
STARLINK-3252           
1 49733U 21115K   24333.71578591  .00003550  00000+0  24108-3 0  9994
2 49733  53.2176  90.9559 0001486  85.5940 274.5222 15.08834594165046
STARLINK-3238           
1 49734U 21115L   24333.66886735  .00000615  00000+0  56716-4 0  9991
2 49734  53.2188  81.1920 0001402  81.2955 278.8196 15.08838279165187
STARLINK-3113           
1 49735U 21115M   24333.77465831 -.00000029  00000+0  16261-4 0  9995
2 49735  53.2187  90.5743 0001935  82.4856 277.6356 15.08831151165051
STARLINK-3148           
1 49736U 21115N   24333.66516822  .00004326  00000+0  28983-3 0  9997
2 49736  53.2151  81.0704 0001409  94.1844 265.9309 15.08829679165182
STARLINK-3225           
1 49737U 21115P   24333.67256014 -.00002519  00000+0 -14032-3 0  9997
2 49737  53.2159  81.1513 0001298  92.8410 267.2731 15.08822803165186
STARLINK-3143           
1 49738U 21115Q   24333.63303234  .00004066  00000+0  27324-3 0  9996
2 49738  53.2172  81.5340 0001479  88.2971 271.8191 15.08863622165170
STARLINK-3155           
1 49739U 21115R   24334.05802420  .00007937  00000+0  51640-3 0  9993
2 49739  53.2157  89.4211 0001471  92.6375 267.4786 15.08826983166202
STARLINK-3226           
1 49740U 21115S   24333.68820885  .00001453  00000+0  10933-3 0  9995
2 49740  53.2181  81.0523 0001421  83.3729 276.7425 15.08842813165189
STARLINK-3244           
1 49741U 21115T   24333.68453457  .00000517  00000+0  50558-4 0  9991
2 49741  53.2191  81.1052 0001474  97.7365 262.3794 15.08845551165184
STARLINK-3202           
1 49742U 21115U   24333.63205320  .00001399  00000+0  10595-3 0  9996
2 49742  53.2160  81.3332 0000951  72.4792 287.6304 15.08847052165171
STARLINK-3239           
1 49743U 21115V   24333.68085092  .00001576  00000+0  11706-3 0  9996
2 49743  53.2168  81.0457 0001115  82.3483 277.7636 15.08837880165182
STARLINK-3231           
1 49744U 21115W   24333.82804606  .00001660  00000+0  12239-3 0  9999
2 49744  53.2153  80.3486 0001620  85.3344 274.7833 15.08841311165204
STARLINK-3241           
1 49745U 21115X   24333.69188790  .00001043  00000+0  83580-4 0  9997
2 49745  53.2169  81.0340 0001575  97.5134 262.6037 15.08848049165184
STARLINK-3233           
1 49746U 21115Y   24333.64678353  .00000836  00000+0  70604-4 0  9994
2 49746  53.2177  81.2652 0001370  90.6023 269.5126 15.08851335165172
STARLINK-3247           
1 49747U 21115Z   24333.63573155  .00002618  00000+0  18243-3 0  9998
2 49747  53.2166  81.3162 0001491  75.8924 284.2234 15.08857597165177
STARLINK-3248           
1 49748U 21115AA  24333.67984093 -.00002559  00000+0 -14273-3 0  9995
2 49748  53.2156  80.6935 0001915  87.2655 272.8557 15.08843113165198
STARLINK-3250           
1 49749U 21115AB  24333.66616233  .00000974  00000+0  79264-4 0  9992
2 49749  53.2168  81.4221 0001390  96.7510 263.3641 15.08846151165173
STARLINK-3236           
1 49750U 21115AC  24333.66245642  .00001455  00000+0  10950-3 0  9997
2 49750  53.2158  81.2075 0001413  94.1785 265.9369 15.08841250165182
STARLINK-3229           
1 49751U 21115AD  24333.64307134  .00002212  00000+0  15695-3 0  9994
2 49751  53.2153  81.2069 0001224  89.5712 270.5421 15.08860939165185
STARLINK-3209           
1 49752U 21115AE  24333.67810265  .00000717  00000+0  63158-4 0  9998
2 49752  53.2176  71.1355 0001324  98.3447 261.7695 15.08842152165329
STARLINK-3200           
1 49753U 21115AF  24333.72405403  .00000979  00000+0  79593-4 0  9999
2 49753  53.2172  80.9176 0001399 110.6161 249.4981 15.08846972165198
STARLINK-3193           
1 49754U 21115AG  24333.28339821  .00001929  00000+0  13922-3 0  9990
2 49754  53.2188  73.0024 0001645  84.0399 276.0781 15.08846959165269
STARLINK-3210           
1 49755U 21115AH  24333.66981716  .00001953  00000+0  14074-3 0  9995
2 49755  53.2163  81.2136 0001403  88.1976 271.9177 15.08847624165180
